[{"id":"57213","name":"H2SAT (HEINRICH HERTZ)","tle1":"1 57213U 23093A   26176.23516927  .00000011  00000+0  00000+0 0  9992","tle2":"2 57213   0.0480 107.4610 0000842  16.9784 234.2914  1.00269964 10991"},{"id":"57214","name":"SYRACUSE 4B","tle1":"1 57214U 23093B   26175.38300657  .00000000  00000+0  00000+0 0  9997","tle2":"2 57214   0.0239  21.5852 0000267 108.5537 273.8248  1.00269725  7038"},{"id":"57479","name":"JUPITER 3 (ECHOSTAR 24)","tle1":"1 57479U 23108A   26174.50986520  .00000000  00000+0  00000+0 0  9999","tle2":"2 57479   0.0217   7.9584 0001194  82.7820 269.2732  1.00269415 10717"},{"id":"57493","name":"GALAXY 37 (G-37)","tle1":"1 57493U 23112A   26175.95392100  .00000057  00000+0  00000+0 0  9997","tle2":"2 57493   0.0160  31.7708 0002245  61.6422  36.1021  1.00273244 10622"},{"id":"57624","name":"LUDI TANCE-4 01A","tle1":"1 57624U 23120A   26175.53240344 -.00000158  00000+0  00000+0 0  9991","tle2":"2 57624  15.1002 193.7787 0001367  22.2566 337.9252  1.00268303 10620"},{"id":"58204","name":"TJS-10","tle1":"1 58204U 23169A   26175.75912377 -.00000243  00000+0  00000+0 0  9990","tle2":"2 58204   2.5643  80.4108 0003872 104.3118  93.9179  1.00272332  9614"},{"id":"58253","name":"ZHONGXING-6E","tle1":"1 58253U 23172A   26176.33396848 -.00000351  00000+0  00000+0 0  9992","tle2":"2 58253   0.0381 262.1808 0003089 186.7641  60.2251  1.00267737  9746"},{"id":"58582","name":"YAOGAN-41","tle1":"1 58582U 23197A   26176.33552848 -.00000351  00000+0  00000+0 0  9998","tle2":"2 58582   3.1133 313.2742 0014394 192.9274  11.1692  1.00266850  9409"},{"id":"58698","name":"OVZON-3","tle1":"1 58698U 24003A   26175.46738948  .00000059  00000+0  00000+0 0  9997","tle2":"2 58698   0.0073  50.9109 0000161  38.7380  50.9160  1.00273967  7529"},{"id":"58990","name":"INSAT-3DS","tle1":"1 58990U 24033A   26176.13725274 -.00000146  00000+0  00000+0 0  9996","tle2":"2 58990   0.0576 102.6872 0001414 340.0050 322.0784  1.00270849 47142"},{"id":"58995","name":"MERAH PUTIH 2","tle1":"1 58995U 24035A   26176.04830759 -.00000348  00000+0  00000+0 0  9992","tle2":"2 58995   0.0178  38.1785 0001430  61.5555 303.7917  1.00270766  8660"},{"id":"59020","name":"TJS-11","tle1":"1 59020U 24037A   26175.97695128 -.00000354  00000+0  00000+0 0  9991","tle2":"2 59020   4.1886 327.1882 0003383 114.0582 296.2413  1.00272796  8665"},{"id":"59069","name":"HULIANWAN GAOGUI-01 (H*)","tle1":"1 59069U 24040A   26175.98239164  .00000165  00000+0  00000+0 0  9992","tle2":"2 59069   0.0677 331.6577 0002770  73.6634 255.0386  1.00270755  7405"},{"id":"59346","name":"EUTELSAT 36D","tle1":"1 59346U 24059A   26175.81914640  .00000000  00000+0  00000+0 0  9999","tle2":"2 59346   0.0231  16.9806 0000556 119.4534 107.2726  1.00270360  8224"},{"id":"59915","name":"PAKSAT-MM1","tle1":"1 59915U 24104A   26176.21850447  .00000163  00000+0  00000+0 0  9991","tle2":"2 59915   0.0381  91.7166 0002831 341.6100 316.8498  1.00270626  7608"},{"id":"60086","name":"ASTRA 1P (SES-24)","tle1":"1 60086U 24115A   26175.90625000  .00000129  00000+0  00000+0 0  9996","tle2":"2 60086   0.0595 340.0652 0000828  24.8630 253.5862  1.00274964  7272"},{"id":"60133","name":"GOES 19","tle1":"1 60133U 24119A   26176.15947413 -.00000239  00000+0  00000+0 0  9999","tle2":"2 60133   0.0439 171.1940 0000464 331.0701 113.2562  1.00271732  7047"},{"id":"60179","name":"ZHONGXING-3A","tle1":"1 60179U 24122A   26176.11730664 -.00000304  00000+0  00000+0 0  9990","tle2":"2 60179   0.0430 126.8220 0001292 351.8083 298.4362  1.00270231  7383"},{"id":"60233","name":"TURKSAT 6A","tle1":"1 60233U 24127A   26174.46587259  .00000000  00000+0  00000+0 0  9994","tle2":"2 60233   0.0109 151.2306 0001976 338.2753 351.8385  1.00273332  7087"},{"id":"60327","name":"HULIANWAN GAOGUI-02 (H*)","tle1":"1 60327U 24135A   26176.15044834 -.00000164  00000+0  00000+0 0  9994","tle2":"2 60327   0.0431 357.3362 0007449  13.5264 109.6933  1.00271607  7587"},{"id":"60606","name":"ZHONGXING-4A","tle1":"1 60606U 24151A   26176.04934759 -.00000352  00000+0  00000+0 0  9993","tle2":"2 60606   1.2936 270.7282 0000452 204.7422 293.7102  1.00270243  6831"},{"id":"61503","name":"HULIANWAN GAOGUI-03 (H*)","tle1":"1 61503U 24181A   26176.29580285 -.00000231  00000+0  00000+0 0  9997","tle2":"2 61503   0.0460 358.7008 0001426  93.2864 210.7965  1.00273378  6909"},{"id":"61733","name":"DSN-3 (KIRAMEKI-3)","tle1":"1 61733U 24198A   26176.26832473 -.00000241  00000+0  00000+0 0  9997","tle2":"2 61733   0.0152 320.9102 0000913 153.5578  39.5694  1.00269859  6006"},{"id":"61910","name":"KOREASAT 6A","tle1":"1 61910U 24206A   26175.97764462  .00000000  00000+0  00000+0 0  9995","tle2":"2 61910   0.0142 357.5282 0001052  84.2196 299.3526  1.00269076  5918"},{"id":"62006","name":"OPTUS-X (ADS-01)","tle1":"1 62006U 24212A   26176.24419804 -.00000134  00000+0  00000+0 0  9996","tle2":"2 62006   0.0176 352.4531 0002185 136.1582  29.0665  1.00272071  5840"},{"id":"62028","name":"GSAT-N2 (GSAT-20)","tle1":"1 62028U 24214A   26176.18200740 -.00000010  00000+0  00000+0 0  9995","tle2":"2 62028   0.0558 104.5504 0002179 339.7554 322.4739  1.00271931  5977"},{"id":"62259","name":"SXM-9","tle1":"1 62259U 24234A   26174.36938516 -.00000200  00000+0  00000+0 0  9991","tle2":"2 62259   0.0148 336.3648 0004895 341.8528   1.1406  1.00271796  5638"},{"id":"62374","name":"TJS-12","tle1":"1 62374U 24246A   26175.78309433 -.00000223  00000+0  00000+0 0  9994","tle2":"2 62374   0.6533 299.9327 0002109  91.7487 309.6330  1.00268446  5640"},{"id":"62455","name":"NUVIEW ALPHA","tle1":"1 62455U 24252B   26175.36783983 -.00000207  00000+0  00000+0 0  9993","tle2":"2 62455   0.0534  34.2511 0001427  41.0245 246.5697  1.00270061  3898"},{"id":"62456","name":"AGILA","tle1":"1 62456U 24252C   26175.41445057 -.00000174  00000+0  00000+0 0  9990","tle2":"2 62456   0.0652 122.4429 0001526 345.1641 106.3124  1.00271371  5239"},{"id":"62457","name":"NUVIEW BRAVO","tle1":"1 62457U 24252D   26175.36783983 -.00000207  00000+0  00000+0 0  9995","tle2":"2 62457   0.0745 147.1599 0002351 339.1991 195.4733  1.00272657  3863"}]